EUTELSAT 21B            
1 38992U 12062B   25322.59576458  .00000149  00000+0  00000+0 0  9997
2 38992   0.0695 347.3843 0003366 267.0921  39.5210  1.00273984 47713
EUTELSAT 70B            
1 39020U 12069A   25322.79938838 -.00000025  00000+0  00000+0 0  9997
2 39020   0.0646 359.5090 0004451 232.7036 184.1725  1.00271391 47395
EUTELSAT 117 WEST A     
1 39122U 13012A   25322.56820442  .00000006  00000+0  00000+0 0  9993
2 39122   0.0183 310.3051 0002811 291.5002 263.8310  1.00271262 46324
EUTELSAT 7B             
1 39163U 13022A   25322.59281792  .00000067  00000+0  00000+0 0  9998
2 39163   0.0706   4.2223 0003734 309.7215 324.3952  1.00274016 45844
EXPRESS-AT1             
1 39612U 14010A   25322.81659257  .00000097  00000+0  00000+0 0  9998
2 39612   0.0168 286.6684 0000215 121.6760 359.7693  1.00272895 42708
EXPRESS-AT2             
1 39613U 14010B   25322.81780219 -.00000262  00000+0  00000+0 0  9997
2 39613   0.0161 290.3653 0000916  14.5967 187.4373  1.00272914 42395
EUTELSAT 3B             
1 39773U 14030A   25322.80610583  .00000039  00000+0  00000+0 0  9992
2 39773   0.0691  14.2336 0004514 205.6911 131.4792  1.00272473 41956
EUTELSAT 115 WEST B     
1 40425U 15010B   25322.56863777 -.00000007  00000+0  00000+0 0  9991
2 40425   0.0145 136.9583 0000178  64.8109 305.9205  1.00272662 39288
